CCSDS_OMM_VERS = 2.0
CREATION_DATE  = 
ORIGINATOR     = 

OBJECT_NAME    = ATLAS CENTAUR 2
OBJECT_ID      = 1963-047A
CENTER_NAME    = EARTH
REF_FRAME      = TEME
TIME_SYSTEM    = UTC
MEAN_ELEMENT_THEORY = SGP/SGP4

EPOCH          = 2025-11-14T17:17:13.140672
MEAN_MOTION    = 14.11502979
ECCENTRICITY   = .0549676
INCLINATION    = 30.3512
RA_OF_ASC_NODE = 117.9330
ARG_OF_PERICENTER = 147.4003
MEAN_ANOMALY   = 216.1793

EPHEMERIS_TYPE = 0
CLASSIFICATION_TYPE = U
NORAD_CAT_ID   = 694
ELEMENT_SET_NO = 999
REV_AT_EPOCH   = 11536
BSTAR          = .67266E-3
MEAN_MOTION_DOT = .5547E-4
MEAN_MOTION_DDOT = 0

CCSDS_OMM_VERS = 2.0
CREATION_DATE  = 
ORIGINATOR     = 

OBJECT_NAME    = THOR AGENA D R/B
OBJECT_ID      = 1964-002A
CENTER_NAME    = EARTH
REF_FRAME      = TEME
TIME_SYSTEM    = UTC
MEAN_ELEMENT_THEORY = SGP/SGP4

EPOCH          = 2025-11-14T11:06:12.509856
MEAN_MOTION    = 14.33935837
ECCENTRICITY   = .0032105
INCLINATION    = 99.1222
RA_OF_ASC_NODE = 320.5514
ARG_OF_PERICENTER = 232.9971
MEAN_ANOMALY   = 126.8273

EPHEMERIS_TYPE = 0
CLASSIFICATION_TYPE = U
NORAD_CAT_ID   = 733
ELEMENT_SET_NO = 999
REV_AT_EPOCH   = 22178
BSTAR          = .19288E-3
MEAN_MOTION_DOT = .492E-5
MEAN_MOTION_DDOT = 0

CCSDS_OMM_VERS = 2.0
CREATION_DATE  = 
ORIGINATOR     = 

OBJECT_NAME    = SL-3 R/B
OBJECT_ID      = 1964-053B
CENTER_NAME    = EARTH
REF_FRAME      = TEME
TIME_SYSTEM    = UTC
MEAN_ELEMENT_THEORY = SGP/SGP4

EPOCH          = 2025-11-14T17:13:15.512160
MEAN_MOTION    = 14.61231243
ECCENTRICITY   = .0071264
INCLINATION    = 65.0770
RA_OF_ASC_NODE = 308.2711
ARG_OF_PERICENTER = 329.8067
MEAN_ANOMALY   = 29.8934

EPHEMERIS_TYPE = 0
CLASSIFICATION_TYPE = U
NORAD_CAT_ID   = 877
ELEMENT_SET_NO = 999
REV_AT_EPOCH   = 24999
BSTAR          = .20009E-3
MEAN_MOTION_DOT = .901E-5
MEAN_MOTION_DDOT = 0

CCSDS_OMM_VERS = 2.0
CREATION_DATE  = 
ORIGINATOR     = 

OBJECT_NAME    = SL-8 R/B
OBJECT_ID      = 1967-045B
CENTER_NAME    = EARTH
REF_FRAME      = TEME
TIME_SYSTEM    = UTC
MEAN_ELEMENT_THEORY = SGP/SGP4

EPOCH          = 2025-11-14T19:59:21.975072
MEAN_MOTION    = 14.45506474
ECCENTRICITY   = .0065392
INCLINATION    = 74.0108
RA_OF_ASC_NODE = 202.5704
ARG_OF_PERICENTER = 238.0752
MEAN_ANOMALY   = 121.4035

EPHEMERIS_TYPE = 0
CLASSIFICATION_TYPE = U
NORAD_CAT_ID   = 2802
ELEMENT_SET_NO = 999
REV_AT_EPOCH   = 7242
BSTAR          = .19392E-3
MEAN_MOTION_DOT = .673E-5
MEAN_MOTION_DDOT = 0

CCSDS_OMM_VERS = 2.0
CREATION_DATE  = 
ORIGINATOR     = 

OBJECT_NAME    = SL-8 R/B
OBJECT_ID      = 1968-040B
CENTER_NAME    = EARTH
REF_FRAME      = TEME
TIME_SYSTEM    = UTC
MEAN_ELEMENT_THEORY = SGP/SGP4

EPOCH          = 2025-11-14T14:33:13.209696
MEAN_MOTION    = 15.02274848
ECCENTRICITY   = .0023736
INCLINATION    = 74.0317
RA_OF_ASC_NODE = 188.6656
ARG_OF_PERICENTER = 38.0236
MEAN_ANOMALY   = 322.2621

EPHEMERIS_TYPE = 0
CLASSIFICATION_TYPE = U
NORAD_CAT_ID   = 3230
ELEMENT_SET_NO = 999
REV_AT_EPOCH   = 7272
BSTAR          = .37427E-3
MEAN_MOTION_DOT = .4932E-4
MEAN_MOTION_DDOT = 0

CCSDS_OMM_VERS = 2.0
CREATION_DATE  = 
ORIGINATOR     = 

OBJECT_NAME    = OAO 2
OBJECT_ID      = 1968-110A
CENTER_NAME    = EARTH
REF_FRAME      = TEME
TIME_SYSTEM    = UTC
MEAN_ELEMENT_THEORY = SGP/SGP4

EPOCH          = 2025-11-14T08:43:25.458240
MEAN_MOTION    = 14.47218642
ECCENTRICITY   = .0005671
INCLINATION    = 34.9918
RA_OF_ASC_NODE = 189.0737
ARG_OF_PERICENTER = 344.8903
MEAN_ANOMALY   = 15.1617

EPHEMERIS_TYPE = 0
CLASSIFICATION_TYPE = U
NORAD_CAT_ID   = 3597
ELEMENT_SET_NO = 999
REV_AT_EPOCH   = 238
BSTAR          = .16322E-3
MEAN_MOTION_DOT = .586E-5
MEAN_MOTION_DDOT = 0

CCSDS_OMM_VERS = 2.0
CREATION_DATE  = 
ORIGINATOR     = 

OBJECT_NAME    = ISIS 1
OBJECT_ID      = 1969-009A
CENTER_NAME    = EARTH
REF_FRAME      = TEME
TIME_SYSTEM    = UTC
MEAN_ELEMENT_THEORY = SGP/SGP4

EPOCH          = 2025-11-14T13:27:43.963200
MEAN_MOTION    = 11.30338851
ECCENTRICITY   = .1707366
INCLINATION    = 88.4510
RA_OF_ASC_NODE = 167.8776
ARG_OF_PERICENTER = 321.6450
MEAN_ANOMALY   = 27.4402

EPHEMERIS_TYPE = 0
CLASSIFICATION_TYPE = U
NORAD_CAT_ID   = 3669
ELEMENT_SET_NO = 999
REV_AT_EPOCH   = 33552
BSTAR          = .22833E-3
MEAN_MOTION_DOT = .318E-5
MEAN_MOTION_DDOT = 0

CCSDS_OMM_VERS = 2.0
CREATION_DATE  = 
ORIGINATOR     = 

OBJECT_NAME    = SERT 2
OBJECT_ID      = 1970-009A
CENTER_NAME    = EARTH
REF_FRAME      = TEME
TIME_SYSTEM    = UTC
MEAN_ELEMENT_THEORY = SGP/SGP4

EPOCH          = 2025-11-14T15:02:26.058336
MEAN_MOTION    = 13.58712403
ECCENTRICITY   = .0005674
INCLINATION    = 99.2603
RA_OF_ASC_NODE = 263.1019
ARG_OF_PERICENTER = 96.3469
MEAN_ANOMALY   = 76.5020

EPHEMERIS_TYPE = 0
CLASSIFICATION_TYPE = U
NORAD_CAT_ID   = 4327
ELEMENT_SET_NO = 999
REV_AT_EPOCH   = 76426
BSTAR          = .147E-3
MEAN_MOTION_DOT = .66E-6
MEAN_MOTION_DDOT = 0

CCSDS_OMM_VERS = 2.0
CREATION_DATE  = 
ORIGINATOR     = 

OBJECT_NAME    = SL-3 R/B
OBJECT_ID      = 1971-028B
CENTER_NAME    = EARTH
REF_FRAME      = TEME
TIME_SYSTEM    = UTC
MEAN_ELEMENT_THEORY = SGP/SGP4

EPOCH          = 2025-11-14T18:49:42.928032
MEAN_MOTION    = 15.52571067
ECCENTRICITY   = .0021158
INCLINATION    = 81.2402
RA_OF_ASC_NODE = 192.9658
ARG_OF_PERICENTER = 343.1112
MEAN_ANOMALY   = 16.9429

EPHEMERIS_TYPE = 0
CLASSIFICATION_TYPE = U
NORAD_CAT_ID   = 5118
ELEMENT_SET_NO = 999
REV_AT_EPOCH   = 97079
BSTAR          = .52384E-3
MEAN_MOTION_DOT = .32577E-3
MEAN_MOTION_DDOT = 0

CCSDS_OMM_VERS = 2.0
CREATION_DATE  = 
ORIGINATOR     = 

OBJECT_NAME    = ASTEX 1
OBJECT_ID      = 1971-089A
CENTER_NAME    = EARTH
REF_FRAME      = TEME
TIME_SYSTEM    = UTC
MEAN_ELEMENT_THEORY = SGP/SGP4

EPOCH          = 2025-11-14T20:04:55.163712
MEAN_MOTION    = 14.50592090
ECCENTRICITY   = .0017741
INCLINATION    = 92.7124
RA_OF_ASC_NODE = 114.5953
ARG_OF_PERICENTER = 109.9544
MEAN_ANOMALY   = 250.3574

EPHEMERIS_TYPE = 0
CLASSIFICATION_TYPE = U
NORAD_CAT_ID   = 5560
ELEMENT_SET_NO = 999
REV_AT_EPOCH   = 84565
BSTAR          = .33515E-3
MEAN_MOTION_DOT = .1315E-4
MEAN_MOTION_DDOT = 0

CCSDS_OMM_VERS = 2.0
CREATION_DATE  = 
ORIGINATOR     = 

OBJECT_NAME    = SL-8 R/B
OBJECT_ID      = 1971-119B
CENTER_NAME    = EARTH
REF_FRAME      = TEME
TIME_SYSTEM    = UTC
MEAN_ELEMENT_THEORY = SGP/SGP4

EPOCH          = 2025-11-14T11:02:44.155392
MEAN_MOTION    = 14.35033300
ECCENTRICITY   = .0560889
INCLINATION    = 73.8895
RA_OF_ASC_NODE = 30.6555
ARG_OF_PERICENTER = 20.6804
MEAN_ANOMALY   = 341.6088

EPHEMERIS_TYPE = 0
CLASSIFICATION_TYPE = U
NORAD_CAT_ID   = 5730
ELEMENT_SET_NO = 999
REV_AT_EPOCH   = 63894
BSTAR          = .53144E-3
MEAN_MOTION_DOT = .10037E-3
MEAN_MOTION_DDOT = 0

CCSDS_OMM_VERS = 2.0
CREATION_DATE  = 
ORIGINATOR     = 

OBJECT_NAME    = OAO 3 (COPERNICUS)
OBJECT_ID      = 1972-065A
CENTER_NAME    = EARTH
REF_FRAME      = TEME
TIME_SYSTEM    = UTC
MEAN_ELEMENT_THEORY = SGP/SGP4

EPOCH          = 2025-11-14T20:05:05.156736
MEAN_MOTION    = 14.59871716
ECCENTRICITY   = .0007259
INCLINATION    = 35.0053
RA_OF_ASC_NODE = 231.6149
ARG_OF_PERICENTER = 297.4564
MEAN_ANOMALY   = 98.9381

EPHEMERIS_TYPE = 0
CLASSIFICATION_TYPE = U
NORAD_CAT_ID   = 6153
ELEMENT_SET_NO = 999
REV_AT_EPOCH   = 82940
BSTAR          = .179E-3
MEAN_MOTION_DOT = .849E-5
MEAN_MOTION_DDOT = 0

