ATLAS CENTAUR 2         
1 00694U 63047A   25318.72029098  .00005547  00000+0  67266-3 0  9995
2 00694  30.3512 117.9330 0549676 147.4003 216.1793 14.11502979115369
THOR AGENA D R/B        
1 00733U 64002A   25318.46264479  .00000492  00000+0  19288-3 0  9991
2 00733  99.1222 320.5514 0032105 232.9971 126.8273 14.33935837221789
SL-3 R/B                
1 00877U 64053B   25318.71754065  .00000901  00000+0  20009-3 0  9997
2 00877  65.0770 308.2711 0071264 329.8067  29.8934 14.61231243249991
SL-8 R/B                
1 02802U 67045B   25318.83289323  .00000673  00000+0  19392-3 0  9993
2 02802  74.0108 202.5704 0065392 238.0752 121.4035 14.45506474 72427
SL-8 R/B                
1 03230U 68040B   25318.60640289  .00004932  00000+0  37427-3 0  9993
2 03230  74.0317 188.6656 0023736  38.0236 322.2621 15.02274848 72722
OAO 2                   
1 03597U 68110A   25318.36348910  .00000586  00000+0  16322-3 0  9998
2 03597  34.9918 189.0737 0005671 344.8903  15.1617 14.47218642  2388
ISIS 1                  
1 03669U 69009A   25318.56092550  .00000318  00000+0  22833-3 0  9991
2 03669  88.4510 167.8776 1707366 321.6450  27.4402 11.30338851335525
SERT 2                  
1 04327U 70009A   25318.62669049  .00000066  00000+0  14700-3 0  9999
2 04327  99.2603 263.1019 0005674  96.3469  76.5020 13.58712403764267
SL-3 R/B                
1 05118U 71028B   25318.78452463  .00032577  00000+0  52384-3 0  9999
2 05118  81.2402 192.9658 0021158 343.1112  16.9429 15.52571067970798
ASTEX 1                 
1 05560U 71089A   25318.83674958  .00001315  00000+0  33515-3 0  9999
2 05560  92.7124 114.5953 0017741 109.9544 250.3574 14.50592090845652
SL-8 R/B                
1 05730U 71119B   25318.46023328  .00010037  00000+0  53144-3 0  9991
2 05730  73.8895  30.6555 0560889  20.6804 341.6088 14.35033300638949
OAO 3 (COPERNICUS)      
1 06153U 72065A   25318.83686524  .00000849  00000+0  17900-3 0  9996
2 06153  35.0053 231.6149 0007259 297.4564  98.9381 14.59871716829409
